{
    "spaceTrack": {
        "CCSDS_OMM_VERS": "2.0",
        "COMMENT": "GENERATED VIA SPACE-TRACK.ORG API",
        "CREATION_DATE": "2022-11-30T17:18:05",
        "ORIGINATOR": "18 SPCS",
        "OBJECT_NAME": "STARLINK-1365",
        "OBJECT_ID": "2020-025BM",
        "CENTER_NAME": "EARTH",
        "REF_FRAME": "TEME",
        "TIME_SYSTEM": "UTC",
        "MEAN_ELEMENT_THEORY": "SGP4",
        "EPOCH": "2022-11-30T12:45:43.796160",
        "MEAN_MOTION": 15.06398343,
        "ECCENTRICITY": 0.0001703,
        "INCLINATION": 53.0556,
        "RA_OF_ASC_NODE": 71.8926,
        "ARG_OF_PERICENTER": 63.3318,
        "MEAN_ANOMALY": 296.7845,
        "EPHEMERIS_TYPE": 0,
        "CLASSIFICATION_TYPE": "U",
        "NORAD_CAT_ID": 45590,
        "ELEMENT_SET_NO": 999,
        "REV_AT_EPOCH": 14496,
        "BSTAR": 0.000064424,
        "MEAN_MOTION_DOT": 0.00000678,
        "MEAN_MOTION_DDOT": 0,
        "SEMIMAJOR_AXIS": 6925.354,
        "PERIOD": 95.592,
        "APOAPSIS": 548.398,
        "PERIAPSIS": 546.039,
        "OBJECT_TYPE": "PAYLOAD",
        "RCS_SIZE": "LARGE",
        "COUNTRY_CODE": "US",
        "LAUNCH_DATE": "2020-04-22",
        "SITE": "AFETR",
        "DECAY_DATE": null,
        "DECAYED": 0,
        "FILE": 3675646,
        "GP_ID": 219171138,
        "TLE_LINE0": "0 STARLINK-1365",
        "TLE_LINE1": "1 45590U 20025BM  22334.53175690  .00000678  00000-0  64424-4 0  9997",
        "TLE_LINE2": "2 45590  53.0556  71.8926 0001703  63.3318 296.7845 15.06398343144964"
    },
    "launch": "5eb87d44ffd86e000604b386",
    "version": "v1.0",
    "height_km": 546.6310921121685,
    "latitude": 9.602849409762834,
    "longitude": 104.80418573973812,
    "velocity_kms": 7.5910981241347235,
    "id": "5eed7715096e59000698570e"
}